NORAD_CAT_ID,OBJECT_NAME,OBJECT_TYPE,EPOCH,MEAN_MOTION,ECCENTRICITY,INCLINATION,RA_OF_ASC_NODE,ARG_OF_PERICENTER,MEAN_ANOMALY,BSTAR,MEAN_MOTION_DOT,MEAN_MOTION_DDOT,TLE_LINE0,TLE_LINE1,TLE_LINE2,SEMIMAJOR_AXIS,PERIOD,APOGEE,PERIGEE,DECAYED
55271.0,STARLINK-5306,PAYLOAD,2023-04-30 12:10:06,14.99143902,0.0003247,69.9989,157.3667,276.3783,83.7007,-7.0901e-05,-9.58e-06,0.0,0 STARLINK-5306,1 55271U 23010C   23120.50702094 -.00000958  00000-0 -70901-4 0  9996,2 55271  69.9989 157.3667 0003247 276.3783  83.7007 14.99143902 16069,6947.677,96.055,571.798,567.286,0.0
55271.0,STARLINK-5306,PAYLOAD,2023-05-01 12:11:20,14.99139803,0.0003241,69.9985,154.8389,272.3467,87.7321,-4.6718e-05,-6.63e-06,0.0,0 STARLINK-5306,1 55271U 23010C   23121.50787966 -.00000663  00000-0 -46718-4 0  9990,2 55271  69.9985 154.8389 0003241 272.3467  87.7321 14.99139803 16212,6947.69,96.055,571.807,567.303,0.0
55271.0,STARLINK-5306,PAYLOAD,2023-05-02 12:12:34,14.99142623,0.0003121,69.9982,152.3123,266.6828,93.3974,6.6886e-05,7.21e-06,0.0,0 STARLINK-5306,1 55271U 23010C   23122.50873229  .00000721  00000-0  66886-4 0  9990,2 55271  69.9982 152.3123 0003121 266.6828  93.3974 14.99142623 16369,6947.681,96.055,571.714,567.378,0.0
55271.0,STARLINK-5306,PAYLOAD,2023-05-03 12:13:49,14.99134705,0.0003143,69.9986,149.7854,269.0826,90.9973,4.1276e-06,-4.3e-07,0.0,0 STARLINK-5306,1 55271U 23010C   23123.50959858 -.00000043  00000-0  41276-5 0  9999,2 55271  69.9986 149.7854 0003143 269.0826  90.9973 14.99134705 16514,6947.706,96.055,571.754,567.387,0.0
55271.0,STARLINK-5306,PAYLOAD,2023-05-04 05:50:43,14.99142687,0.0003306,69.9982,147.9322,270.9697,89.1084,-9.0891e-06,-2.05e-06,0.0,0 STARLINK-5306,1 55271U 23010C   23124.24355673 -.00000205  00000-0 -90891-5 0  9994,2 55271  69.9982 147.9322 0003306 270.9697  89.1084 14.99142687 16621,6947.681,96.055,571.843,567.249,0.0
55271.0,STARLINK-5306,PAYLOAD,2023-05-04 12:15:03,14.99141627,0.0003363,69.998,147.2583,270.9787,89.0987,-1.7775e-05,-3.1e-06,0.0,0 STARLINK-5306,1 55271U 23010C   23124.51045326 -.00000310  00000-0 -17775-4 0  9991,2 55271  69.9980 147.2583 0003363 270.9787  89.0987 14.99141627 16976,6947.684,96.055,571.886,567.213,0.0
55271.0,STARLINK-5306,PAYLOAD,2023-05-05 09:04:07,14.99142389,0.0003391,69.9979,145.0682,270.2884,89.7887,-9.1777e-05,-1.212e-05,0.0,0 STARLINK-5306,1 55271U 23010C   23125.37786615 -.00001212  00000-0 -91777-4 0  9995,2 55271  69.9979 145.0682 0003391 270.2884  89.7887 14.99142389 16794,6947.682,96.055,571.903,567.191,0.0
55271.0,STARLINK-5306,PAYLOAD,2023-05-05 18:40:38,14.99099915,0.0003286,69.9981,144.0574,287.1111,72.9689,0.00063382,7.63e-05,0.0,0 STARLINK-5306,1 55271U 23010C   23125.77822335  .00007630  00000-0  63382-3 0  9997,2 55271  69.9981 144.0574 0003286 287.1111  72.9689 14.99099915 16856,6947.813,96.058,571.961,567.395,0.0
55271.0,STARLINK-5306,PAYLOAD,2023-05-06 05:53:12,14.99138023,0.0003486,69.9978,142.8782,270.926,89.15,-9.1007e-06,-2.05e-06,0.0,0 STARLINK-5306,1 55271U 23010C   23126.24527948 -.00000205  00000-0 -91007-5 0  9992,2 55271  69.9978 142.8782 0003486 270.9260  89.1500 14.99138023 16920,6947.695,96.055,571.982,567.138,0.0
55271.0,STARLINK-5306,PAYLOAD,2023-05-06 10:41:26,14.99139816,0.0003469,69.9978,142.373,271.1788,88.8974,1.1447e-05,4.6e-07,0.0,0 STARLINK-5306,1 55271U 23010C   23126.44544978  .00000046  00000-0  11447-4 0  9996,2 55271  69.9978 142.3730 0003469 271.1788  88.8974 14.99139816 17267,6947.69,96.055,571.965,567.145,0.0
55271.0,STARLINK-5306,PAYLOAD,2023-05-07 10:42:40,14.99141419,0.000351,69.9979,139.8463,271.0574,89.0183,5.3552e-05,5.59e-06,0.0,0 STARLINK-5306,1 55271U 23010C   23127.44630654  .00000559  00000-0  53552-4 0  9996,2 55271  69.9979 139.8463 0003510 271.0574  89.0183 14.99141419 17101,6947.685,96.055,571.988,567.111,0.0
55271.0,STARLINK-5306,PAYLOAD,2023-05-07 18:43:05,14.99138473,0.0003483,69.998,139.004,271.1996,88.8764,2.5624e-05,2.18e-06,0.0,0 STARLINK-5306,1 55271U 23010C   23127.77992886  .00000218  00000-0  25624-4 0  9991,2 55271  69.9980 139.0040 0003483 271.1996  88.8764 14.99138473 17461,6947.694,96.055,571.979,567.139,0.0
55271.0,STARLINK-5306,PAYLOAD,2023-05-08 10:43:55,14.99138359,0.0003462,69.9981,137.3196,271.0437,89.0326,-7.962e-07,-1.04e-06,0.0,0 STARLINK-5306,1 55271U 23010C   23128.44716985 -.00000104  00000-0 -79620-6 0  9993,2 55271  69.9981 137.3196 0003462 271.0437  89.0326 14.99138359 17258,6947.694,96.055,571.965,567.154,0.0
55271.0,STARLINK-5306,PAYLOAD,2023-05-09 10:45:09,14.9914228,0.000342,69.9982,134.7928,271.1013,88.9755,1.4725e-05,8.6e-07,0.0,0 STARLINK-5306,1 55271U 23010C   23129.44802558  .00000086  00000-0  14725-4 0  9996,2 55271  69.9982 134.7928 0003420 271.1013  88.9755 14.99142280 17711,6947.682,96.055,571.923,567.171,0.0
55271.0,STARLINK-5306,PAYLOAD,2023-05-10 09:10:18,14.99137535,0.0003403,69.9982,132.435,269.3879,90.689,1.5787e-05,9.9e-07,0.0,0 STARLINK-5306,1 55271U 23010C   23130.38216435  .00000099  00000-0  15787-4 0  9997,2 55271  69.9982 132.4350 0003403 269.3879  90.6890 14.99137535 17857,6947.697,96.055,571.926,567.197,0.0
55271.0,STARLINK-5306,PAYLOAD,2023-05-10 17:10:43,14.99137548,0.0003405,69.9982,131.5926,270.0844,89.9925,8.3711e-06,8e-08,0.0,0 STARLINK-5306,1 55271U 23010C   23130.71578470  .00000008  00000-0  83711-5 0  9997,2 55271  69.9982 131.5926 0003405 270.0844  89.9925 14.99137548 17594,6947.697,96.055,571.927,567.196,0.0
55271.0,STARLINK-5306,PAYLOAD,2023-05-11 09:11:33,14.99140185,0.0003397,69.9981,129.9079,270.4324,89.6446,-3.8844e-07,-9.9e-07,0.0,0 STARLINK-5306,1 55271U 23010C   23131.38302302 -.00000099  00000-0 -38844-6 0  9990,2 55271  69.9981 129.9079 0003397 270.4324  89.6446 14.99140185 18003,6947.689,96.055,571.914,567.193,0.0
55271.0,STARLINK-5306,PAYLOAD,2023-05-11 17:11:58,14.99138419,0.0003386,69.9982,129.0657,270.3475,89.7297,7.8776e-06,2e-08,0.0,0 STARLINK-5306,1 55271U 23010C   23131.71664372  .00000002  00000-0  78776-5 0  9994,2 55271  69.9982 129.0657 0003386 270.3475  89.7297 14.99138419 17743,6947.694,96.055,571.912,567.207,0.0
55271.0,STARLINK-5306,PAYLOAD,2023-05-12 04:24:32,14.99136799,0.0003406,69.9981,127.8865,270.0899,89.987,7.0405e-06,-8e-08,0.0,0 STARLINK-5306,1 55271U 23010C   23132.18371293 -.00000008  00000-0  70405-5 0  9991,2 55271  69.9981 127.8865 0003406 270.0899  89.9870 14.99136799 18120,6947.699,96.055,571.93,567.198,0.0
55271.0,STARLINK-5306,PAYLOAD,2023-05-12 17:13:12,14.99138578,0.0003403,69.9981,126.5386,270.0785,89.9984,2.3217e-05,1.89e-06,0.0,0 STARLINK-5306,1 55271U 23010C   23132.71750350  .00000189  00000-0  23217-4 0  9992,2 55271  69.9981 126.5386 0003403 270.0785  89.9984 14.99138578 18207,6947.694,96.055,571.923,567.194,0.0
55271.0,STARLINK-5306,PAYLOAD,2023-05-12 23:37:32,14.99139975,0.0003412,69.998,125.8648,270.0308,90.046,3.0395e-05,2.77e-06,0.0,0 STARLINK-5306,1 55271U 23010C   23132.98439826  .00000277  00000-0  30395-4 0  9996,2 55271  69.9980 125.8648 0003412 270.0308  90.0460 14.99139975 17933,6947.689,96.055,571.925,567.184,0.0
55271.0,STARLINK-5306,PAYLOAD,2023-05-13 09:14:01,14.99141135,0.0003418,69.9981,124.854,269.8084,90.2684,3.2127e-05,2.98e-06,0.0,0 STARLINK-5306,1 55271U 23010C   23133.38474099  .00000298  00000-0  32127-4 0  9990,2 55271  69.9981 124.8540 0003418 269.8084  90.2684 14.99141135 18300,6947.686,96.055,571.925,567.176,0.0
55271.0,STARLINK-5306,PAYLOAD,2023-05-13 17:14:26,14.99129215,0.0003395,69.9982,124.0115,270.1757,89.9013,0.00014386,1.659e-05,0.0,0 STARLINK-5306,1 55271U 23010C   23133.71836613  .00001659  00000-0  14386-3 0  9999,2 55271  69.9982 124.0115 0003395 270.1757  89.9013 14.99129215 18358,6947.722,96.056,571.946,567.229,0.0
55271.0,STARLINK-5306,PAYLOAD,2023-05-14 07:39:30,14.9889989,0.0003099,69.9985,122.4962,277.4066,82.6741,-0.0025284,-0.00030578,0.0,0 STARLINK-5306,1 55271U 23010C   23134.31910388 -.00030578  00000-0 -25284-2 0  9990,2 55271  69.9985 122.4962 0003099 277.4066  82.6741 14.98899890 18133,6948.431,96.07,572.449,568.143,0.0
55271.0,STARLINK-5306,PAYLOAD,2023-05-14 09:15:47,14.98758968,0.000297,69.9982,122.3285,268.6848,91.3971,-0.0040517,-0.0004864,0.0,0 STARLINK-5306,1 55271U 23010C   23134.38596112 -.00048640  00000-0 -40517-2 0  9997,2 55271  69.9982 122.3285 0002970 268.6848  91.3971 14.98758968 18147,6948.867,96.079,572.795,568.668,0.0
55271.0,STARLINK-5306,PAYLOAD,2023-05-15 01:16:57,14.98674441,0.0002217,69.9976,120.6454,261.944,98.1468,-0.004525,-0.00054147,0.0,0 STARLINK-5306,1 55271U 23010C   23135.05343885 -.00054147  00000-0 -45250-2 0  9997,2 55271  69.9976 120.6454 0002217 261.9440  98.1468 14.98674441 18247,6949.128,96.085,572.534,569.452,0.0
55271.0,STARLINK-5306,PAYLOAD,2023-05-15 09:17:31,14.986728,0.0002641,69.9984,119.8029,269.7191,90.3665,-0.0049084,-0.00058689,0.0,0 STARLINK-5306,1 55271U 23010C   23135.38716974 -.00058689  00000-0 -49084-2 0  9990,2 55271  69.9984 119.8029 0002641 269.7191  90.3665 14.98672800 18299,6949.133,96.085,572.833,569.163,0.0
55271.0,STARLINK-5306,PAYLOAD,2023-05-15 15:42:00,14.98613689,0.0003052,69.9987,119.1293,273.1723,86.9087,-0.0041264,-0.00049345,0.0,0 STARLINK-5306,1 55271U 23010C   23135.65417450 -.00049345  00000-0 -41264-2 0  9998,2 55271  69.9987 119.1293 0003052 273.1723  86.9087 14.98613689 18339,6949.316,96.089,573.302,569.06,0.0
55271.0,STARLINK-5306,PAYLOAD,2023-05-16 06:07:06,14.98577025,0.0002786,69.9983,117.6141,264.7807,95.3034,-0.0039165,-0.00046811,0.0,0 STARLINK-5306,1 55271U 23010C   23136.25493315 -.00046811  00000-0 -39165-2 0  9991,2 55271  69.9983 117.6141 0002786 264.7807  95.3034 14.98577025 18421,6949.429,96.091,573.23,569.358,0.0
55271.0,STARLINK-5306,PAYLOAD,2023-05-16 07:43:13,14.98561669,0.0002959,69.9984,117.4457,264.2578,95.8244,-0.003666,-0.00043825,0.0,0 STARLINK-5306,1 55271U 23010C   23136.32168696 -.00043825  00000-0 -36660-2 0  9999,2 55271  69.9984 117.4457 0002959 264.2578  95.8244 14.98561669 18742,6949.477,96.092,573.398,569.285,0.0
